2024-166B               
1 61180U 24166B   26067.67341263  .00038147  00000+0  25198-3 0  9998
2 61180  96.6921 322.5475 0002182 351.2198   8.9031 15.75502359 84916
STARLINK-11745 [DTC]    
1 64376U 25127G   26068.18819318  .00275628  00000+0  20640-2 0  9997
2 64376  43.0014  87.5465 0001711 234.1073 125.9636 15.71036491 43427
